[{"OBJECT_NAME":"BEIDOU-3 G3 (PRN 143)","OBJECT_ID":"2020-040A","EPOCH":"2026-03-03T21:03:38.802816","MEAN_MOTION":1.00275701,"ECCENTRICITY":0.0004284,"INCLINATION":2.1888,"RA_OF_ASC_NODE":67.1175,"ARG_OF_PERICENTER":315.6999,"MEAN_ANOMALY":205.1966,"EPHEMERIS_TYPE":0,"CLASSIFICATION_TYPE":"U","NORAD_CAT_ID":45807,"ELEMENT_SET_NO":999,"REV_AT_EPOCH":2101,"BSTAR":0,"MEAN_MOTION_DOT":-3.66e-6,"MEAN_MOTION_DDOT":0},{"OBJECT_NAME":"GALAXY 30 (WAAS/PRN 135)","OBJECT_ID":"2020-056C","EPOCH":"2026-03-03T16:54:14.517216","MEAN_MOTION":1.00272514,"ECCENTRICITY":0.0002192,"INCLINATION":0.0158,"RA_OF_ASC_NODE":120.6788,"ARG_OF_PERICENTER":220.8853,"MEAN_ANOMALY":308.4406,"EPHEMERIS_TYPE":0,"CLASSIFICATION_TYPE":"U","NORAD_CAT_ID":46114,"ELEMENT_SET_NO":999,"REV_AT_EPOCH":2023,"BSTAR":0,"MEAN_MOTION_DOT":2.3e-7,"MEAN_MOTION_DDOT":0},{"OBJECT_NAME":"QZS-1R (QZSS/PRN 196)","OBJECT_ID":"2021-096A","EPOCH":"2026-03-01T09:13:38.436096","MEAN_MOTION":1.00291836,"ECCENTRICITY":0.07470272,"INCLINATION":37.2374,"RA_OF_ASC_NODE":81.1754,"ARG_OF_PERICENTER":269.6443,"MEAN_ANOMALY":80.6815,"EPHEMERIS_TYPE":0,"CLASSIFICATION_TYPE":"U","NORAD_CAT_ID":49336,"ELEMENT_SET_NO":999,"REV_AT_EPOCH":1592,"BSTAR":0,"MEAN_MOTION_DOT":-2.59e-6,"MEAN_MOTION_DDOT":0},{"OBJECT_NAME":"QZS-6 (QZSS/PRN 200)","OBJECT_ID":"2025-023A","EPOCH":"2026-03-03T15:54:10.810368","MEAN_MOTION":1.00270273,"ECCENTRICITY":0.0001894,"INCLINATION":0.044,"RA_OF_ASC_NODE":306.2401,"ARG_OF_PERICENTER":29.5503,"MEAN_ANOMALY":154.675,"EPHEMERIS_TYPE":0,"CLASSIFICATION_TYPE":"U","NORAD_CAT_ID":62876,"ELEMENT_SET_NO":999,"REV_AT_EPOCH":390,"BSTAR":0,"MEAN_MOTION_DOT":-2.47e-6,"MEAN_MOTION_DDOT":0}]
